IRIDIUM 26              
1 24903U 97043A   25215.94939270  .00000275  00000+0  85701-4 0  9997
2 24903  86.3927  90.5549 0001949  84.3568 275.7851 14.37174596463605
DUMMY MASS 1            
1 24925U 97048A   25215.79216891  .00000357  00000+0  36738-4 0  9993
2 24925  86.3351 113.3241 0006165 359.5783   0.5435 14.87019043512207
DUMMY MASS 2            
1 24926U 97048B   25215.82955601  .00000362  00000+0  37494-4 0  9993
2 24926  86.3353 114.9232 0007399   8.5391 351.5958 14.86770946511981
IRIDIUM 29              
1 24944U 97051A   25215.85499472  .00000340  00000+0  10930-3 0  9990
2 24944  86.3977 123.9128 0002346  88.1629 271.9837 14.36500129460110
IRIDIUM 36              
1 24967U 97056C   25215.75431457  .00000339  00000+0  10651-3 0  9996
2 24967  86.4019 153.0333 0002028  90.2376 269.9054 14.37640664459054
